     2.10           NAVIGATION DATA                         RINEX VERSION / TYPE
SPIDER V4,0,0,3554                      2015 04 16 03:08    PGM / RUN BY / DATE 
   1.7695D-08 -7.4506D-09 -5.9605D-08  1.1921D-07           ION ALPHA           
   1.2902D+05 -1.1469D+05  6.5536D+04 -3.2768D+05           ION BETA            
    2.793967723846D-09 8.881784197001D-16   147456     1831 DELTA-UTC: A0,A1,T,W
    16                                                      LEAP SECONDS        
                                                            END OF HEADER       
30 15 02 07 14 00  0.0-8.536688983440D-05 1.023181539495D-12 0.000000000000D+00
    5.300000000000D+01-2.890625000000D+01 4.371610629050D-09-1.847865810525D+00
   -1.572072505951D-06 9.949584491551D-04 9.737908840179D-06 5.153776405334D+03
    5.688000000000D+05-5.215406417847D-08-2.997116966295D+00 3.352761268616D-08
    9.573450018334D-01 1.910000000000D+02 2.961551426516D+00-7.939259027978D-09
   -3.443000606840D-10 1.000000000000D+00 1.830000000000D+03 0.000000000000D+00
    2.000000000000D+00 0.000000000000D+00 3.259629011154D-09 5.300000000000D+01
    5.688000000000D+05 0.000000000000D+00
 5 15 02 07 14 00  0.0-2.822787500918D-04 5.115907697473D-12 0.000000000000D+00
    2.000000000000D+01 4.690625000000D+01 4.917704909957D-09 1.584487145118D+00
    2.630054950714D-06 4.051320720464D-03 9.888783097267D-06 5.153769626617D+03
    5.688000000000D+05-3.911554813385D-08 1.109698561502D+00 8.381903171539D-08
    9.465898460895D-01 1.833437500000D+02 4.202026276975D-01-8.174626309199D-09
    2.746542993037D-10 1.000000000000D+00 1.830000000000D+03 0.000000000000D+00
    2.000000000000D+00 0.000000000000D+00-1.071020960808D-08 2.000000000000D+01
    5.688000000000D+05 0.000000000000D+00
13 15 02 07 14 00  0.0-8.603697642684D-05-3.524291969370D-12 0.000000000000D+00
    3.900000000000D+01-4.031250000000D+00 4.634478578680D-09-1.178703172598D+00
   -1.247972249985D-07 5.342951160856D-03 4.136934876442D-06 5.153681943893D+03
    5.688000000000D+05-6.891787052155D-08 2.273329941591D+00-5.215406417847D-08
    9.748090969631D-01 3.046875000000D+02 2.062954522976D+00-8.280702346042D-09
   -1.842933861074D-10 1.000000000000D+00 1.830000000000D+03 0.000000000000D+00
    2.000000000000D+00 0.000000000000D+00-1.164153218269D-08 3.900000000000D+01
    5.688000000000D+05 0.000000000000D+00
28 15 02 07 14 00  0.0 4.178746603429D-04 2.614797267597D-12 0.000000000000D+00
    9.000000000000D+01 6.015625000000D+01 3.756942312805D-09 1.631437900440D+00
    2.898275852203D-06 1.971697097179D-02 8.653849363327D-06 5.153690525055D+03
    5.688000000000D+05-3.352761268616D-08-1.957353301587D+00-5.327165126801D-07
    9.882592535590D-01 2.255312500000D+02-1.673079456875D+00-7.714249683488D-09
    4.107313933410D-10 1.000000000000D+00 1.830000000000D+03 0.000000000000D+00
    2.800000000000D+00 0.000000000000D+00-1.117587089539D-08 9.000000000000D+01
    5.688000000000D+05 0.000000000000D+00
28 15 02 07 13 59 44.0 4.178676754236D-04 2.614797267597D-12 0.000000000000D+00
    5.000000000000D+00 6.015625000000D+01 3.757299360529D-09 1.629103972640D+00
    2.896413207054D-06 1.971697085537D-02 8.653849363327D-06 5.153690523148D+03
    5.687840000000D+05-3.352761268616D-08-1.957353175776D+00-5.327165126801D-07
    9.882592550219D-01 2.255312500000D+02-1.673079208179D+00-7.714249683488D-09
    4.107313933410D-10 1.000000000000D+00 1.830000000000D+03 0.000000000000D+00
    2.000000000000D+00 0.000000000000D+00-1.117587089539D-08 5.000000000000D+00
    5.687840000000D+05 0.000000000000D+00
20 15 02 07 16 00  0.0 2.871975302696D-04 4.092726157978D-12 0.000000000000D+00
    3.000000000000D+00 3.665625000000D+01 5.244861434051D-09-3.044115158198D+00
    1.840293407440D-06 5.829111556523D-03 1.030787825584D-05 5.155773065567D+03
    5.760000000000D+05 1.098960638046D-07 1.046107835710D+00-8.940696716309D-08
    9.263791500614D-01 1.603750000000D+02 1.235059335464D+00-8.232128756447D-09
    3.410856319608D-10 1.000000000000D+00 1.830000000000D+03 0.000000000000D+00
    2.000000000000D+00 0.000000000000D+00-8.381903171539D-09 3.000000000000D+00
    5.760000000000D+05 0.000000000000D+00
 2 15 02 07 16 00  0.0 5.465522408485D-04 2.273736754432D-12 0.000000000000D+00
    2.000000000000D+01-7.240625000000D+01 5.083783172211D-09 2.918236518550D-01
   -3.801658749580D-06 1.432795519941D-02 8.637085556984D-06 5.153765554428D+03
    5.760000000000D+05-1.024454832077D-07 3.994745487470D-02 2.197921276093D-07
    9.408519507631D-01 2.060625000000D+02-2.325021461425D+00-8.501068293754D-09
   -2.575107349578D-10 1.000000000000D+00 1.830000000000D+03 0.000000000000D+00
    2.000000000000D+00 0.000000000000D+00-2.048909664154D-08 2.000000000000D+01
    5.760000000000D+05 0.000000000000D+00
 5 15 02 07 16 00  0.0-2.822419628501D-04 5.115907697473D-12 0.000000000000D+00
    2.100000000000D+01 3.965625000000D+01 4.870917003075D-09 2.634389481650D+00
    2.065673470497D-06 4.050939576700D-03 9.823590517044D-06 5.153771444321D+03
    5.760000000000D+05-7.823109626770D-08 1.109639632236D+00-5.215406417847D-08
    9.465925100633D-01 1.838750000000D+02 4.204248347133D-01-8.060692557876D-09
    3.403713144667D-10 1.000000000000D+00 1.830000000000D+03 0.000000000000D+00
    2.000000000000D+00 0.000000000000D+00-1.071020960808D-08 2.100000000000D+01
    5.760000000000D+05 0.000000000000D+00
 7 15 02 07 16 00  0.0 4.383027553558D-04 3.183231456205D-12 0.000000000000D+00
    4.900000000000D+01-3.859375000000D+01 4.140172649159D-09-8.738564938020D-01
   -2.130866050720D-06 8.002762915567D-03 9.490177035332D-06 5.153738632202D+03
    5.760000000000D+05 2.514570951462D-07-3.048009333480D+00-3.352761268616D-08
    9.716365601514D-01 2.030000000000D+02-2.753886305024D+00-7.897114961963D-09
   -5.303792405265D-10 1.000000000000D+00 1.830000000000D+03 0.000000000000D+00
    2.000000000000D+00 0.000000000000D+00-1.117587089539D-08 4.900000000000D+01
    5.760000000000D+05 0.000000000000D+00
 9 15 02 07 16 00  0.0-7.974170148373D-05-1.182343112305D-11 0.000000000000D+00
    5.600000000000D+01 1.565625000000D+01 4.995565294763D-09 1.526087806494D+00
    7.152557373047D-07 3.379770787433D-04 4.190951585770D-06 5.153652324677D+03
    5.760000000000D+05-8.195638656616D-08 2.159817238749D+00-3.352761268616D-08
    9.579527652978D-01 2.934687500000D+02 2.201685778627D+00-8.421421782145D-09
   -8.607501517099D-11 1.000000000000D+00 1.830000000000D+03 0.000000000000D+00
    2.000000000000D+00 0.000000000000D+00 4.656612873077D-10 5.600000000000D+01
    5.760000000000D+05 0.000000000000D+00
10 15 02 07 16 00  0.0-1.622824929655D-04-1.705302565824D-12 0.000000000000D+00
    1.280000000000D+02 3.759375000000D+01 4.913061957268D-09 2.987414334758D+00
    1.801177859306D-06 1.455164910294D-02 1.000799238682D-05 5.153662670135D+03
    5.760000000000D+05-1.862645149231D-09 1.125374521623D+00-2.458691596985D-07
    9.413712910700D-01 1.743125000000D+02 9.200450702673D-01-7.930687218050D-09
    3.385855207316D-10 1.000000000000D+00 1.830000000000D+03 0.000000000000D+00
    2.800000000000D+00 0.000000000000D+00-3.259629011154D-09 1.280000000000D+02
    5.760000000000D+05 0.000000000000D+00
13 15 02 07 16 00  0.0-8.606258779764D-05-3.524291969370D-12 0.000000000000D+00
    5.100000000000D+01 1.875000000000D-01 4.654122420789D-09-1.284133310107D-01
    1.080334186554D-07 5.343453492969D-03 4.485249519348D-06 5.153683403015D+03
    5.760000000000D+05-1.117587089539D-08 2.273269922451D+00-3.725290298462D-09
    9.748079705162D-01 3.004062500000D+02 2.062840942017D+00-8.300345299972D-09
   -1.267909943703D-10 1.000000000000D+00 1.830000000000D+03 0.000000000000D+00
    2.000000000000D+00 0.000000000000D+00-1.164153218269D-08 5.100000000000D+01
    5.760000000000D+05 0.000000000000D+00
28 15 02 07 15 59 44.0 4.178867675364D-04 2.614797267597D-12 0.000000000000D+00
    6.000000000000D+00 6.346875000000D+01 3.589792463288D-09 2.679277174306D+00
    3.226101398468D-06 1.971664931625D-02 8.719041943550D-06 5.153690591812D+03
    5.759840000000D+05 1.955777406693D-07-1.957405880326D+00-1.080334186554D-07
    9.882633877655D-01 2.209687500000D+02-1.673088184644D+00-7.319233663594D-09
    2.867976689469D-10 1.000000000000D+00 1.830000000000D+03 0.000000000000D+00
    2.000000000000D+00 0.000000000000D+00-1.117587089539D-08 6.000000000000D+00
    5.759840000000D+05 0.000000000000D+00
30 15 02 07 16 00  0.0-8.535943925381D-05 1.023181539495D-12 0.000000000000D+00
    5.900000000000D+01-3.312500000000D+01 4.388397201183D-09-7.976051804859D-01
   -1.816079020500D-06 9.952756809071D-04 9.814277291298D-06 5.153776813507D+03
    5.760000000000D+05 3.539025783539D-08-2.997173426155D+00-1.229345798492D-07
    9.573420277210D-01 1.900000000000D+02 2.961407667019D+00-7.966403536841D-09
   -4.878774606532D-10 1.000000000000D+00 1.830000000000D+03 0.000000000000D+00
    2.000000000000D+00 0.000000000000D+00 3.259629011154D-09 5.900000000000D+01
    5.760000000000D+05 0.000000000000D+00
15 15 02 07 16 00  0.0-2.309181727469D-04-2.273736754432D-12 0.000000000000D+00
    9.400000000000D+01 2.028125000000D+01 5.627020183141D-09 1.065015035157D+00
    1.346692442894D-06 7.082241820171D-03 3.786757588387D-06 5.153584707260D+03
    5.760000000000D+05 2.980232238770D-08 2.118857055427D+00 9.499490261078D-08
    9.338575024334D-01 2.900625000000D+02 3.715676308833D-01-8.769293735611D-09
   -1.435774138470D-10 1.000000000000D+00 1.830000000000D+03 0.000000000000D+00
    2.000000000000D+00 0.000000000000D+00-1.071020960808D-08 9.400000000000D+01
    5.760000000000D+05 0.000000000000D+00
